[{"OBJECT_NAME":"STARLINK-3720","OBJECT_ID":"2022-029BA","EPOCH":"2026-03-09T06:23:59.490528","MEAN_MOTION":15.08818219,"ECCENTRICITY":0.00014568,"INCLINATION":53.2169,"RA_OF_ASC_NODE":71.0195,"ARG_OF_PERICENTER":74.6079,"MEAN_ANOMALY":285.5074,"EPHEMERIS_TYPE":0,"CLASSIFICATION_TYPE":"U","NORAD_CAT_ID":52136,"ELEMENT_SET_NO":999,"REV_AT_EPOCH":22087,"BSTAR":-0.00016137058,"MEAN_MOTION_DOT":-2.854e-5,"MEAN_MOTION_DDOT":0},{"OBJECT_NAME":"SL-16 DEB","OBJECT_ID":"1992-093JY","EPOCH":"2026-03-07T13:13:58.279008","MEAN_MOTION":15.07529046,"ECCENTRICITY":0.0041412,"INCLINATION":71.2754,"RA_OF_ASC_NODE":129.6393,"ARG_OF_PERICENTER":153.6297,"MEAN_ANOMALY":274.6618,"EPHEMERIS_TYPE":0,"CLASSIFICATION_TYPE":"U","NORAD_CAT_ID":39708,"ELEMENT_SET_NO":999,"REV_AT_EPOCH":64104,"BSTAR":0.0012088,"MEAN_MOTION_DOT":0.00018716,"MEAN_MOTION_DDOT":0}]
